[Satellite]
VERSION=1.1
NAME=IRIDIUM 123 [+]
NICKNAME=IRIDIUM 123 [+]
TLE1=1 42804U 17039B   20157.61994838  .00000089  00000-0  24588-4 0  9999
TLE2=2 42804  86.4000 194.0549 0002557  90.4693 269.6796 14.34217853154250
STATUS=0
